{
  "norad_id": 64804,
  "name": "STARLINK-34633",
  "history": [
    {
      "epoch": "2026-03-28T16:37:52.303872Z",
      "apogee_km": 573.831367182669,
      "perigee_km": 570.2375725190386,
      "latitude_deg": 6.6867691185136485e-06,
      "longitude_deg": 10.948514844709225,
      "height_km": 574.3001980240975,
      "semi_major_axis_km": 6950.171469850854,
      "eccentricity": 0.00025854,
      "inclination_deg": 70.0021,
      "raan_deg": 86.5262,
      "arg_perigee_deg": 275.1542,
      "mean_anomaly_deg": 84.9322,
      "mean_motion_rev_day": 14.98336927
    },
    {
      "epoch": "2026-03-29T03:50:48.230016Z",
      "apogee_km": 574.3019485705108,
      "perigee_km": 569.7356961952055,
      "latitude_deg": 3.2348628468293798e-06,
      "longitude_deg": -158.9233177000096,
      "height_km": 574.3422650230557,
      "semi_major_axis_km": 6950.155822382858,
      "eccentricity": 0.0003285,
      "inclination_deg": 70.001,
      "raan_deg": 85.348,
      "arg_perigee_deg": 272.6197,
      "mean_anomaly_deg": 87.4586,
      "mean_motion_rev_day": 14.98341987
    }
  ]
}